QIANFAN-25              
1 61558U 24185G   25249.21104793  .00000628  00000+0  37652-3 0  9995
2 61558  88.9739  89.2389 0006412 237.2875 122.7689 14.05780383 55809
QIANFAN-26              
1 61559U 24185H   25249.21280423  .00000306  00000+0  29371-3 0  9993
2 61559  88.9750  90.2888 0004406 324.5405  35.5468 13.77735268 55243
QIANFAN-27              
1 61560U 24185J   25249.22526844  .00000686  00000+0  27536-3 0  9998
2 61560  88.9744  88.3884 0005961 243.5989 116.4593 14.27154575 56258
QIANFAN-28              
1 61561U 24185K   25249.25117975  .00001178  00000+0  47185-3 0  9992
2 61561  88.9760  88.3813 0005050 243.8347 116.2328 14.27738760 56268
QIANFAN-29              
1 61562U 24185L   25249.19668093  .00000228  00000+0  33502-3 0  9991
2 61562  88.9729  91.4018 0009596 344.3579  15.7275 13.50962500 54627
QIANFAN-30              
1 61563U 24185M   25249.24595745  .00000219  00000+0  32671-3 0  9997
2 61563  88.9748  90.8847 0006600 331.1393  28.9391 13.49940438 54914
QIANFAN-31              
1 61564U 24185N   25249.19697152  .00000190  00000+0  24698-3 0  9995
2 61564  88.9732  90.8462 0006169 329.9498  30.1303 13.57912901 54924
QIANFAN-32              
1 61565U 24185P   25249.26847696  .00000228  00000+0  33553-3 0  9996
2 61565  88.9791  90.9872 0009200 355.3073   4.7990 13.50693109 54880
